QIANFAN-25              
1 61558U 24185G   25330.92224892  .00000519  00000+0  30906-3 0  9991
2 61558  88.9807  79.9757 0009789  11.6889 348.4519 14.05887847 67286
QIANFAN-26              
1 61559U 24185H   25330.91667363  .00000268  00000+0  25538-3 0  9991
2 61559  88.9808  81.4546 0007172  70.4412 289.7528 13.77798901 66490
QIANFAN-27              
1 61560U 24185J   25330.90452403  .00000766  00000+0  30713-3 0  9993
2 61560  88.9803  78.7964 0007181 357.2196   2.8957 14.27302719 67906
QIANFAN-28              
1 61561U 24185K   25330.89437364  .00001157  00000+0  46083-3 0  9993
2 61561  88.9821  78.7995 0006434 357.9437   2.1730 14.27985485 67916
QIANFAN-29              
1 61562U 24185L   25330.88959519  .00000228  00000+0  33435-3 0  9999
2 61562  88.9785  82.9447 0011800  98.4785 261.7704 13.51002517 65656
QIANFAN-30              
1 61563U 24185M   25330.92656979  .00000299  00000+0  45143-3 0  9996
2 61563  88.9805  82.4602 0009215  86.5218 273.6987 13.49982325 65931
QIANFAN-31              
1 61564U 24185N   25330.91411977  .00000265  00000+0  35069-3 0  9992
2 61564  88.9789  82.2886 0008623  82.8377 277.3758 13.57956955 66018
QIANFAN-32              
1 61565U 24185P   25330.90374557  .00000240  00000+0  35411-3 0  9998
2 61565  88.9848  82.5918 0011247 108.5815 251.6559 13.50726734 65907
